SUOMI NPP               
1 37849U 11061A   26140.28702829  .00000058  00000+0  48334-4 0  9999
2 37849  98.7945  81.3557 0002717  61.6609 298.4841 14.19510878754487
YAOGAN-12               
1 37875U 11066B   26140.27345935  .00003470  00000+0  13669-3 0  9996
2 37875  97.1156 180.1590 0008797 335.0491  25.0322 15.26203085807787
BEIDOU-2 M4             
1 38251U 12018B   26137.51432167 -.00000055  00000+0  00000+0 0  9998
2 38251  55.6853 305.1252 0010929 280.3706  79.4822  1.86229518 95376
ARIRANG-3 (KOMPSAT-3)   
1 38338U 12025B   26140.31805363  .00000255  00000+0  59973-4 0  9995
2 38338  98.1156  98.2627 0004951 187.4776 172.6353 14.62178407747274
METOP-B                 
1 38771U 12049A   26140.24418801  .00000061  00000+0  47811-4 0  9994
2 38771  98.6522 192.2982 0003433  78.4368 281.7195 14.21424146709291
SJ-9A                   
1 38860U 12056A   26140.20951599  .00000928  00000+0  11329-3 0  9999
2 38860  97.6694 113.1779 0025376 353.2205   6.8663 14.85409147695439
COSMOS 2484 (RODNIK-S 6)
1 39059U 13001C   26140.29527602  .00000111  00000+0  72385-3 0  9997
2 39059  82.5032 239.2309 0027545  95.4131 265.0092 12.42938398605095
SARAL                   
1 39086U 13009A   26140.24823131  .00000041  00000+0  31128-4 0  9999
2 39086  98.5559 327.1695 0002300  38.7783 321.3565 14.32848363691602
STRAND-1                
1 39090U 13009E   26140.20713604  .00000154  00000+0  66315-4 0  9994
2 39090  98.3917 321.1315 0007775 321.3911  38.6719 14.37144735693047
BRITE-AUSTRIA           
1 39091U 13009F   26140.27764010  .00000101  00000+0  48939-4 0  9993
2 39091  98.3988 320.4053 0009480 329.7522  30.3116 14.36529701693041
GAOFEN-1                
1 39150U 13018A   26140.27836265  .00000082  00000+0  19091-4 0  9996
2 39150  97.9099 212.9114 0017009   1.2418 358.8831 14.76540334704123
NEE-01 PEGASO           
1 39151U 13018B   26139.92705426  .00001532  00000+0  15130-3 0  9991
2 39151  98.1188 283.1528 0011372 255.2186 104.7773 14.93502115706483
PROBA-V                 
1 39159U 13021A   26139.93489928  .00000038  00000+0  34687-4 0  9999
2 39159  98.3573 119.9390 0003571 199.3573 160.7471 14.23590396677096
ARIRANG-5 (KOMPSAT-5)   
1 39227U 13042A   26140.29907988  .00000302  00000+0  25934-4 0  9999
2 39227  97.6206 327.3915 0002330 196.2191 163.8960 15.04500273699668
GONETS-M 5              
1 39249U 13048A   26140.26301362  .00000067  00000+0  41153-3 0  9998
2 39249  82.4843   0.7942 0015675 275.4595  84.4696 12.42891328575410
GONETS-M 7              
1 39251U 13048C   26140.30697759 -.00000042  00000+0 -37302-3 0  9990
2 39251  82.4911   3.6742 0016487 276.6360  83.2843 12.42913725575376
FENGYUN 3C              
1 39260U 13052A   26140.26904139  .00000041  00000+0  41894-4 0  9992
2 39260  98.4966 115.4289 0015836 102.5893 257.7054 14.15747742654619
CASSIOPE                
1 39265U 13055A   26140.25695795  .00026861 -66181-6  30369-3 0  9996
2 39265  80.9142 100.5719 0300274 156.0099 205.5470 15.22924985663410
APRIZESAT 7             
1 39416U 13066A   26140.31297573  .00000617  00000+0  66739-4 0  9997
2 39416  97.7694  93.9378 0034554 305.3761  54.4230 14.91493341677076
ZACUBE-1 (TSHEPISOSAT)  
1 39417U 13066B   26140.14343251  .00003103  00000+0  24410-3 0  9996
2 39417  97.8124 102.3287 0040930 346.9906  13.0258 15.00950381676520
APRIZESAT 8             
1 39425U 13066K   26140.29478989  .00000709  00000+0  82682-4 0  9993
2 39425  97.8207  88.1560 0046506  19.6176 340.6816 14.87584727675523
