OBJECT_NAME,OBJECT_ID,EPOCH,MEAN_MOTION,ECCENTRICITY,INCLINATION,RA_OF_ASC_NODE,ARG_OF_PERICENTER,MEAN_ANOMALY,EPHEMERIS_TYPE,CLASSIFICATION_TYPE,NORAD_CAT_ID,ELEMENT_SET_NO,REV_AT_EPOCH,BSTAR,MEAN_MOTION_DOT,MEAN_MOTION_DDOT
SUOMI NPP,2011-061A,2026-05-20T06:53:19.244256,14.19510878,.00027173,98.7945,81.3557,61.6609,298.4841,0,U,37849,999,75448,.4833354E-4,.58E-6,0
YAOGAN-12,2011-066B,2026-05-20T06:33:46.887840,15.26203085,.00087975,97.1156,180.1590,335.0491,25.0322,0,U,37875,999,80778,.13668555E-3,.347E-4,0
BEIDOU-2 M4,2012-018B,2026-05-17T12:20:37.392288,1.86229518,.00109291,55.6853,305.1252,280.3706,79.4822,0,U,38251,999,9537,0,-.55E-6,0
ARIRANG-3 (KOMPSAT-3),2012-025B,2026-05-20T07:37:59.833632,14.62178407,.00049513,98.1156,98.2627,187.4776,172.6353,0,U,38338,999,74727,.59972651E-4,.255E-5,0
METOP-B,2012-049A,2026-05-20T05:51:37.844064,14.21424146,.00034331,98.6522,192.2982,78.4368,281.7195,0,U,38771,999,70929,.47811147E-4,.61E-6,0
SJ-9A,2012-056A,2026-05-20T05:01:42.181536,14.85409147,.00253761,97.6694,113.1779,353.2205,6.8663,0,U,38860,999,69543,.11329123E-3,.928E-5,0
COSMOS 2484 (RODNIK-S 6),2013-001C,2026-05-20T07:05:11.848128,12.42938398,.00275453,82.5032,239.2309,95.4131,265.0092,0,U,39059,999,60509,.72384983E-3,.111E-5,0
SARAL,2013-009A,2026-05-20T05:57:27.185184,14.32848363,.00023002,98.5559,327.1695,38.7783,321.3565,0,U,39086,999,69160,.31127783E-4,.41E-6,0
STRAND-1,2013-009E,2026-05-20T04:58:16.553856,14.37144735,.00077755,98.3917,321.1315,321.3911,38.6719,0,U,39090,999,69304,.66314772E-4,.154E-5,0
BRITE-AUSTRIA,2013-009F,2026-05-20T06:39:48.104640,14.36529701,.00094804,98.3988,320.4053,329.7522,30.3116,0,U,39091,999,69304,.4893899E-4,.101E-5,0
GAOFEN-1,2013-018A,2026-05-20T06:40:50.532960,14.76540334,.0017009,97.9099,212.9114,1.2418,358.8831,0,U,39150,999,70412,.19090654E-4,.82E-6,0
NEE-01 PEGASO,2013-018B,2026-05-19T22:14:57.488064,14.93502115,.0011372,98.1188,283.1528,255.2186,104.7773,0,U,39151,999,70648,.1513E-3,.1532E-4,0
PROBA-V,2013-021A,2026-05-19T22:26:15.297792,14.23590396,.0003571,98.3573,119.9390,199.3573,160.7471,0,U,39159,999,67709,.34687E-4,.38E-6,0
ARIRANG-5 (KOMPSAT-5),2013-042A,2026-05-20T07:10:40.501632,15.04500273,.00023306,97.6206,327.3915,196.2191,163.8960,0,U,39227,999,69966,.25933687E-4,.302E-5,0
GONETS-M 5,2013-048A,2026-05-20T06:18:44.376768,12.42891328,.00156757,82.4843,0.7942,275.4595,84.4696,0,U,39249,999,57541,.41153016E-3,.67E-6,0
GONETS-M 7,2013-048C,2026-05-20T07:22:02.863776,12.42913725,.00164878,82.4911,3.6742,276.6360,83.2843,0,U,39251,999,57537,-.37302388E-3,-.42E-6,0
FENGYUN 3C,2013-052A,2026-05-20T06:27:25.176096,14.15747742,.00158363,98.4966,115.4289,102.5893,257.7054,0,U,39260,999,65461,.41894184E-4,.41E-6,0
CASSIOPE,2013-055A,2026-05-20T06:10:01.166880,15.22924985,.03002747,80.9142,100.5719,156.0099,205.5470,0,U,39265,999,66341,.30369053E-3,.26861E-3,-.661811E-6
APRIZESAT 7,2013-066A,2026-05-20T07:30:41.103072,14.91493341,.00345545,97.7694,93.9378,305.3761,54.4230,0,U,39416,999,67707,.66739179E-4,.617E-5,0
ZACUBE-1 (TSHEPISOSAT),2013-066B,2026-05-20T03:26:32.568864,15.00950381,.00409301,97.8124,102.3287,346.9906,13.0258,0,U,39417,999,67652,.24410422E-3,.3103E-4,0
APRIZESAT 8,2013-066K,2026-05-20T07:04:29.846496,14.87584727,.00465064,97.8207,88.1560,19.6176,340.6816,0,U,39425,999,67552,.82682033E-4,.709E-5,0
